{
  "count": 8,
  "entries": [
    {
      "id": 6548598208,
      "label": "3T",
      "text": "WEATHER MSG    \r\nMETAR \r\nMETAR PHLI 230453Z 04007KT 10SM CLR 24/21 A3006 RMK AO2 SLP178 T02390206 \r\nMETAR PHLI 230353Z 04006KT 10SM CLR 25/21 A3005 RMK AO2 SLP172 T02500206\r\r\n"
    },
    {
      "id": 6548602158,
      "label": "3T",
      "text": "WEATHER MSG    \r\nMETAR \r\nMETAR PHKO 230453Z 24006KT 10SM CLR 27/22 A3000 RMK AO2 SLP158 T02670222\r\nMETAR PHKO 230353Z 27006KT 10SM CLR 28/21 A2998 RMK AO2 SLP152 T02780211\r\r\n"
    },
    {
      "id": 6548672726,
      "label": "3T",
      "text": "--\r\nMKK     0526    9865\r\n\r\n---------------------------------\r\nPOHOU   0533    9047\r\n\r\n---------------------------------\r\nGOBOZ   0534    8915\r\n\r\n---------------------------------\r\nCHINE   0536    8741\r\n\r\n---------------"
    },
    {
      "id": 6548720918,
      "label": "3T",
      "text": "PDC MSG        \r\nRECEIVED ON 23 AT 0514UTC\r\nPRE-DEPARTURE ATC CLEARANCE\r\nASA1216  DEPART HNL AT 0545Z FL 130\r\nB712/L TRANSPONDER 2323\r\n\r\nROUTE: \r\nPHNL PALAY3 LNY CAMPS4 PHOG\r\n \r\n@PBN/A1B1C1D1O1S1 NA V/Z1Z***\r\n\r\nREMARKS:\r"
    },
    {
      "id": 6548721484,
      "label": "3T",
      "text": "PDC MSG        \r\nRECEIVED ON 23 AT 0514UTC\r\nPRE-DEPARTURE ATC CLEARANCE\r\nASA1216  DEPART HNL AT 0545Z FL 130\r\nB712/L TRANSPONDER 2323\r\n\r\nROUTE: \r\nPHNL PALAY3 LNY CAMPS4 PHOG\r\n \r\n@PBN/A1B1C1D1O1S1 NA V/Z1Z***\r\n\r\nREMARKS:\r\nCLEARED PALAY3 DEPARTURE LNY TRSN\r\nTURN RIGHT HDG 155\r\nMAINTAIN 5000FT\r\nEXP 130 10 MIN AFT DP,DPFRQ 118.3\r\nCTC GND CONTROL 121.9\r\nADVISE ATIS AND BCN CODE\r\n\r\nPDC RECEIVED ON 23 AT 0515Z\r\n\r\r\n"
    },
    {
      "id": 6548817235,
      "label": "3T",
      "text": "FLT PLN REV MSG\r\nFLT 1112 HNL-ITO SKD ARV 0628\r\n                 PLN ARV 0633\r\n\r\n        TIME    FUEL   +/-\r\n_________________________________\r\nOUT     0540   12000 \r\nOFF     0551   11600\r\n-------------------------------"
    },
    {
      "id": 6548841990,
      "label": "3T",
      "text": "WEATHER MSG    \r\nMETAR \r\nMETAR PHKO 230553Z 15010KT 10SM CLR 27/22 A3001 RMK AO2 SLP161 T02670217 10300\r\n20267 53011\r\nMETAR PHKO 230453Z 24006KT 10SM CLR 27/22 A3000 RMK AO2 SLP158 T02670222\r\r\n"
    },
    {
      "id": 6548844201,
      "label": "3T",
      "text": "FLT PLN REV MSG\r\nFLT 1158 HNL-KOA SKD ARV 0626\r\n                 PLN ARV 0630\r\n\r\n        TIME    FUEL   +/-\r\n_________________________________\r\nOUT     0544   11600 \r\nOFF     0555   11200\r\n-------------------------------"
    }
  ],
  "ids": {
    "6548598208": 1,
    "6548602158": 1,
    "6548672726": 1,
    "6548720918": 1,
    "6548721484": 1,
    "6548817235": 1,
    "6548841990": 1,
    "6548844201": 1
  }
}