{
  "count": 3,
  "entries": [
    {
      "id": 6548819660,
      "label": "3W",
      "text": "WEATHER REPORT\n\tFT 23/06:00     \n\tTAF SBGL 230300Z 2306/2412 34005KT 9999 FEW020 TN21/2307Z TX29/2316Z\n\t     BECMG 2311/2313 02005KT BECMG 2315/2317 14010KT FEW025 BECMG\n\t     2323/2401 09005KT BECMG 2404/2406 35005KT FEW020 RMK  PHD=\n\tFT 23/06:00     \n\tTAF SBSG 230300Z 2306/2406 19005KT 9999 SCT020 TN24/2307Z\n\t     TX30/2316Z\n\t     BECMG 2312/2314 13010KT SCT025\n\t     BECMG 2401/2403 19005KT RMK PHD=\n\tFT 23/06:00     \n\tTAF FHAW 230422Z 2306/2324 14014KT 9999 FEW020 TEMPO 2306/2324 4000\n\t     SHRA SCT014 BKN020 PROB30 TEMPO 2306/2324 13015G25KT 2000 +SHRA\n\t     SCT006 BKN010CB=\n\tFT 23/06:00     \n\tTAF DGAA 230500Z 2306/2412 27005KT 9999 SCT015\n\t     BECMG 2309/2311 9999\n\t     BECMG 2312/2315 19015KT PROB30\n\t     TEMPO 2315/2319 7000 TSRA BKN011CB\n\t     BECMG 2320/2323 25007KT NSW\n\t     BECMG 2406/2408 BKN010\n\t     BECMG 2409/2412 SCT023=\n\tSA 23/05:00     \n\tMETAR SBGL 230500Z 10002KT 9999 SCT040 22/18 Q1017=\n\tSA 23/05:00     \n\tSBSG 230500Z 21003KT 180V250 9999 FEW020 23/23 Q1011=\n\tSA 23/04:50     \n\tMETAR FHAW 230450Z 15013KT 9999 SCT017 BKN047 26/23 Q1010=\n\tSA 23/05:00 RTD \n\tDGAA 230500Z 28004KT CAVOK 27/25 Q1008 NOSIG="
    },
    {
      "id": 6548840950,
      "label": "3W",
      "text": "NEW WINDS AVAIL FOR UPLINK"
    },
    {
      "id": 6548840947,
      "label": "3W",
      "text": "NEW WINDS AVAIL FOR UPLINK"
    }
  ],
  "ids": {
    "6548819660": 1,
    "6548840950": 1,
    "6548840947": 1
  }
}